[{"OBJECT_NAME":"STARLINK-36992","OBJECT_ID":"2026-049H","EPOCH":"2026-04-07T03:30:34.391232","MEAN_MOTION":15.80933298,"ECCENTRICITY":9.918e-5,"INCLINATION":97.284,"RA_OF_ASC_NODE":117.8854,"ARG_OF_PERICENTER":92.051,"MEAN_ANOMALY":268.0872,"EPHEMERIS_TYPE":0,"CLASSIFICATION_TYPE":"U","NORAD_CAT_ID":68149,"ELEMENT_SET_NO":999,"REV_AT_EPOCH":390,"BSTAR":0.0011327217,"MEAN_MOTION_DOT":0.00223677,"MEAN_MOTION_DDOT":0},{"OBJECT_NAME":"STARLINK-37060","OBJECT_ID":"2026-049J","EPOCH":"2026-04-07T06:00:02.999808","MEAN_MOTION":15.75242816,"ECCENTRICITY":0.00014201,"INCLINATION":97.2845,"RA_OF_ASC_NODE":117.9909,"ARG_OF_PERICENTER":90.2894,"MEAN_ANOMALY":128.7439,"EPHEMERIS_TYPE":0,"CLASSIFICATION_TYPE":"U","NORAD_CAT_ID":68150,"ELEMENT_SET_NO":999,"REV_AT_EPOCH":521,"BSTAR":-0.00091580744,"MEAN_MOTION_DOT":-0.00134905,"MEAN_MOTION_DDOT":0},{"OBJECT_NAME":"STARLINK-37073","OBJECT_ID":"2026-049K","EPOCH":"2026-04-07T05:31:21.146304","MEAN_MOTION":15.75252538,"ECCENTRICITY":9.749e-5,"INCLINATION":97.2853,"RA_OF_ASC_NODE":117.924,"ARG_OF_PERICENTER":85.7962,"MEAN_ANOMALY":274.3415,"EPHEMERIS_TYPE":0,"CLASSIFICATION_TYPE":"U","NORAD_CAT_ID":68151,"ELEMENT_SET_NO":999,"REV_AT_EPOCH":391,"BSTAR":0.0011676444,"MEAN_MOTION_DOT":0.00178194,"MEAN_MOTION_DDOT":0},{"OBJECT_NAME":"STARLINK-37049","OBJECT_ID":"2026-049L","EPOCH":"2026-04-07T05:19:39.853056","MEAN_MOTION":15.7524829,"ECCENTRICITY":0.00010277,"INCLINATION":97.2848,"RA_OF_ASC_NODE":117.9353,"ARG_OF_PERICENTER":55.7512,"MEAN_ANOMALY":304.385,"EPHEMERIS_TYPE":0,"CLASSIFICATION_TYPE":"U","NORAD_CAT_ID":68152,"ELEMENT_SET_NO":999,"REV_AT_EPOCH":391,"BSTAR":0.0011074964,"MEAN_MOTION_DOT":0.00168789,"MEAN_MOTION_DDOT":0},{"OBJECT_NAME":"STARLINK-37072","OBJECT_ID":"2026-049M","EPOCH":"2026-04-07T07:07:54.919488","MEAN_MOTION":15.75241064,"ECCENTRICITY":0.00012305,"INCLINATION":97.2851,"RA_OF_ASC_NODE":117.9859,"ARG_OF_PERICENTER":72.9502,"MEAN_ANOMALY":287.1898,"EPHEMERIS_TYPE":0,"CLASSIFICATION_TYPE":"U","NORAD_CAT_ID":68153,"ELEMENT_SET_NO":999,"REV_AT_EPOCH":392,"BSTAR":0.0010994787,"MEAN_MOTION_DOT":0.00167489,"MEAN_MOTION_DDOT":0},{"OBJECT_NAME":"STARLINK-36241","OBJECT_ID":"2026-049N","EPOCH":"2026-04-07T02:50:45.146112","MEAN_MOTION":15.75250465,"ECCENTRICITY":0.0001342,"INCLINATION":97.2855,"RA_OF_ASC_NODE":117.7686,"ARG_OF_PERICENTER":69.4849,"MEAN_ANOMALY":290.656,"EPHEMERIS_TYPE":0,"CLASSIFICATION_TYPE":"U","NORAD_CAT_ID":68154,"ELEMENT_SET_NO":999,"REV_AT_EPOCH":389,"BSTAR":0.0010370014,"MEAN_MOTION_DOT":0.00157849,"MEAN_MOTION_DDOT":0},{"OBJECT_NAME":"STARLINK-37048","OBJECT_ID":"2026-049P","EPOCH":"2026-04-07T03:21:54.873216","MEAN_MOTION":15.80919187,"ECCENTRICITY":0.00011835,"INCLINATION":97.2846,"RA_OF_ASC_NODE":117.8937,"ARG_OF_PERICENTER":98.7255,"MEAN_ANOMALY":261.4147,"EPHEMERIS_TYPE":0,"CLASSIFICATION_TYPE":"U","NORAD_CAT_ID":68155,"ELEMENT_SET_NO":999,"REV_AT_EPOCH":390,"BSTAR":0.0010520145,"MEAN_MOTION_DOT":0.002072,"MEAN_MOTION_DDOT":0},{"OBJECT_NAME":"STARLINK-36313","OBJECT_ID":"2026-049Q","EPOCH":"2026-04-07T06:00:02.999808","MEAN_MOTION":15.75237561,"ECCENTRICITY":8.988e-5,"INCLINATION":97.2847,"RA_OF_ASC_NODE":117.995,"ARG_OF_PERICENTER":81.1266,"MEAN_ANOMALY":147.8971,"EPHEMERIS_TYPE":0,"CLASSIFICATION_TYPE":"U","NORAD_CAT_ID":68156,"ELEMENT_SET_NO":999,"REV_AT_EPOCH":522,"BSTAR":-0.00060898263,"MEAN_MOTION_DOT":-0.00090192,"MEAN_MOTION_DDOT":0},{"OBJECT_NAME":"STARLINK-37064","OBJECT_ID":"2026-049R","EPOCH":"2026-04-07T03:25:09.790752","MEAN_MOTION":15.80901224,"ECCENTRICITY":0.00012452,"INCLINATION":97.2845,"RA_OF_ASC_NODE":117.8899,"ARG_OF_PERICENTER":101.4148,"MEAN_ANOMALY":258.7261,"EPHEMERIS_TYPE":0,"CLASSIFICATION_TYPE":"U","NORAD_CAT_ID":68157,"ELEMENT_SET_NO":999,"REV_AT_EPOCH":390,"BSTAR":0.0008848251,"MEAN_MOTION_DOT":0.00173428,"MEAN_MOTION_DDOT":0},{"OBJECT_NAME":"STARLINK-37069","OBJECT_ID":"2026-049S","EPOCH":"2026-04-07T02:45:40.346784","MEAN_MOTION":15.75250868,"ECCENTRICITY":9.795e-5,"INCLINATION":97.2856,"RA_OF_ASC_NODE":117.7739,"ARG_OF_PERICENTER":104.8548,"MEAN_ANOMALY":255.2826,"EPHEMERIS_TYPE":0,"CLASSIFICATION_TYPE":"U","NORAD_CAT_ID":68158,"ELEMENT_SET_NO":999,"REV_AT_EPOCH":389,"BSTAR":0.0010661954,"MEAN_MOTION_DOT":0.00162385,"MEAN_MOTION_DDOT":0},{"OBJECT_NAME":"STARLINK-37053","OBJECT_ID":"2026-049T","EPOCH":"2026-04-07T05:10:30.896832","MEAN_MOTION":15.75253482,"ECCENTRICITY":0.00012119,"INCLINATION":97.2847,"RA_OF_ASC_NODE":117.9442,"ARG_OF_PERICENTER":101.0345,"MEAN_ANOMALY":259.1057,"EPHEMERIS_TYPE":0,"CLASSIFICATION_TYPE":"U","NORAD_CAT_ID":68159,"ELEMENT_SET_NO":999,"REV_AT_EPOCH":391,"BSTAR":0.0010209536,"MEAN_MOTION_DOT":0.00155379,"MEAN_MOTION_DDOT":0},{"OBJECT_NAME":"STARLINK-36306","OBJECT_ID":"2026-049U","EPOCH":"2026-04-07T07:14:31.105824","MEAN_MOTION":15.75246971,"ECCENTRICITY":0.00013911,"INCLINATION":97.2852,"RA_OF_ASC_NODE":117.9796,"ARG_OF_PERICENTER":102.2891,"MEAN_ANOMALY":257.853,"EPHEMERIS_TYPE":0,"CLASSIFICATION_TYPE":"U","NORAD_CAT_ID":68160,"ELEMENT_SET_NO":999,"REV_AT_EPOCH":392,"BSTAR":0.00098848881,"MEAN_MOTION_DOT":0.00150302,"MEAN_MOTION_DDOT":0},{"OBJECT_NAME":"STARLINK-37057","OBJECT_ID":"2026-049V","EPOCH":"2026-04-07T06:00:02.999808","MEAN_MOTION":15.7523084,"ECCENTRICITY":0.00011608,"INCLINATION":97.2849,"RA_OF_ASC_NODE":117.9861,"ARG_OF_PERICENTER":89.0345,"MEAN_ANOMALY":117.9929,"EPHEMERIS_TYPE":0,"CLASSIFICATION_TYPE":"U","NORAD_CAT_ID":68161,"ELEMENT_SET_NO":999,"REV_AT_EPOCH":521,"BSTAR":-0.00048684823,"MEAN_MOTION_DOT":-0.00072262,"MEAN_MOTION_DDOT":0},{"OBJECT_NAME":"STARLINK-37013","OBJECT_ID":"2026-049W","EPOCH":"2026-04-07T00:10:57.103104","MEAN_MOTION":15.80919762,"ECCENTRICITY":0.0001329,"INCLINATION":97.2847,"RA_OF_ASC_NODE":117.7672,"ARG_OF_PERICENTER":94.4634,"MEAN_ANOMALY":265.6786,"EPHEMERIS_TYPE":0,"CLASSIFICATION_TYPE":"U","NORAD_CAT_ID":68162,"ELEMENT_SET_NO":999,"REV_AT_EPOCH":388,"BSTAR":0.00094109884,"MEAN_MOTION_DOT":0.00184867,"MEAN_MOTION_DDOT":0},{"OBJECT_NAME":"STARLINK-36958","OBJECT_ID":"2026-049X","EPOCH":"2026-04-07T03:42:05.074560","MEAN_MOTION":15.75255306,"ECCENTRICITY":0.00013468,"INCLINATION":97.2846,"RA_OF_ASC_NODE":117.8744,"ARG_OF_PERICENTER":104.6842,"MEAN_ANOMALY":255.4573,"EPHEMERIS_TYPE":0,"CLASSIFICATION_TYPE":"U","NORAD_CAT_ID":68163,"ELEMENT_SET_NO":999,"REV_AT_EPOCH":390,"BSTAR":0.00094003058,"MEAN_MOTION_DOT":0.00142854,"MEAN_MOTION_DDOT":0},{"OBJECT_NAME":"STARLINK-37002","OBJECT_ID":"2026-049Y","EPOCH":"2026-04-07T03:16:30.310752","MEAN_MOTION":15.8092607,"ECCENTRICITY":0.00011459,"INCLINATION":97.2845,"RA_OF_ASC_NODE":117.8983,"ARG_OF_PERICENTER":110.7649,"MEAN_ANOMALY":249.3742,"EPHEMERIS_TYPE":0,"CLASSIFICATION_TYPE":"U","NORAD_CAT_ID":68164,"ELEMENT_SET_NO":999,"REV_AT_EPOCH":390,"BSTAR":0.0011746528,"MEAN_MOTION_DOT":0.00232112,"MEAN_MOTION_DDOT":0}]
