STARLINK-36992          
1 68149U 26049H   26097.14623138  .00223677  00000+0  11327-2 0  9993
2 68149  97.2840 117.8854 0000991  92.0510 268.0872 15.80933298  3903
STARLINK-37060          
1 68150U 26049J   26097.25003472 -.00134905  00000+0 -91581-3 0  9998
2 68150  97.2845 117.9909 0001420  90.2894 128.7439 15.75242816  5215
STARLINK-37073          
1 68151U 26049K   26097.23010586  .00178194  00000+0  11676-2 0  9993
2 68151  97.2853 117.9240 0000974  85.7962 274.3415 15.75252538  3910
STARLINK-37049          
1 68152U 26049L   26097.22198904  .00168789  00000+0  11075-2 0  9996
2 68152  97.2848 117.9353 0001027  55.7512 304.3850 15.75248290  3915
STARLINK-37072          
1 68153U 26049M   26097.29716342  .00167489  00000+0  10995-2 0  9992
2 68153  97.2851 117.9859 0001230  72.9502 287.1898 15.75241064  3920
STARLINK-36241          
1 68154U 26049N   26097.11857808  .00157849  00000+0  10370-2 0  9993
2 68154  97.2855 117.7686 0001342  69.4849 290.6560 15.75250465  3896
STARLINK-37048          
1 68155U 26049P   26097.14021844  .00207200  00000+0  10520-2 0  9994
2 68155  97.2846 117.8937 0001183  98.7255 261.4147 15.80919187  3904
STARLINK-36313          
1 68156U 26049Q   26097.25003472 -.00090192  00000+0 -60898-3 0  9990
2 68156  97.2847 117.9950 0000898  81.1266 147.8971 15.75237561  5224
STARLINK-37064          
1 68157U 26049R   26097.14247443  .00173428  00000+0  88483-3 0  9999
2 68157  97.2845 117.8899 0001245 101.4148 258.7261 15.80901224  3903
STARLINK-37069          
1 68158U 26049S   26097.11505031  .00162385  00000+0  10662-2 0  9990
2 68158  97.2856 117.7739 0000979 104.8548 255.2826 15.75250868  3894
STARLINK-37053          
1 68159U 26049T   26097.21563538  .00155379  00000+0  10210-2 0  9992
2 68159  97.2847 117.9442 0001211 101.0345 259.1057 15.75253482  3919
STARLINK-36306          
1 68160U 26049U   26097.30174891  .00150302  00000+0  98849-3 0  9990
2 68160  97.2852 117.9796 0001391 102.2891 257.8530 15.75246971  3924
STARLINK-37057          
1 68161U 26049V   26097.25003472 -.00072262  00000+0 -48685-3 0  9994
2 68161  97.2849 117.9861 0001160  89.0345 117.9929 15.75230840  5214
STARLINK-37013          
1 68162U 26049W   26097.00760536  .00184867  00000+0  94110-3 0  9996
2 68162  97.2847 117.7672 0001329  94.4634 265.6786 15.80919762  3885
STARLINK-36958          
1 68163U 26049X   26097.15422540  .00142854  00000+0  94003-3 0  9994
2 68163  97.2846 117.8744 0001346 104.6842 255.4573 15.75255306  3905
STARLINK-37002          
1 68164U 26049Y   26097.13646193  .00232112  00000+0  11747-2 0  9995
2 68164  97.2845 117.8983 0001145 110.7649 249.3742 15.80926070  3909
